#cP2022 12 17  0  0  0.00000000      96 ORBIT IGS20 HLM  IGS
## 2240 518400.00000000   900.00000000 59930 0.0000000000000
+   31   G01G02G03G04G05G06G07G08G09G10G11G12G13G14G15G16G17
+        G18G19G20G21G22G23G24G25G26G27G29G30G31G32  0  0  0
+          0  0  0  0  0  0  0  0  0  0  0  0  0  0  0  0  0
+          0  0  0  0  0  0  0  0  0  0  0  0  0  0  0  0  0
+          0  0  0  0  0  0  0  0  0  0  0  0  0  0  0  0  0
++         2  2  2  2  2  2  2  2  2  2  2  2  2  3  2  2  2
++         2  2  3  2  2  3  2  2  2  2  2  2  2  2  0  0  0
++         0  0  0  0  0  0  0  0  0  0  0  0  0  0  0  0  0
++         0  0  0  0  0  0  0  0  0  0  0  0  0  0  0  0  0
++         0  0  0  0  0  0  0  0  0  0  0  0  0  0  0  0  0
%c G  cc GPS ccc cccc cccc cccc cccc ccccc ccccc ccccc ccccc
%c cc cc ccc ccc cccc cccc cccc cccc ccccc ccccc ccccc ccccc
%f  1.2500000  1.025000000  0.00000000000  0.000000000000000
%f  0.0000000  0.000000000  0.00000000000  0.000000000000000
%i    0    0    0    0      0      0      0      0         0
%i    0    0    0    0      0      0      0      0         0
/* RAPID ORBIT COMBINATION FROM WEIGHTED AVERAGE OF:        
/* cod emr esa gfz grg jpl ngs sio usn whu                  
/* REFERENCED TO IGS TIME (IGST) AND TO WEIGHTED MEAN POLE: 
/* PCV:IGS20_2233 OL/AL:FES2004  NONE     Y  ORB:CMB CLK:CMB
*  2022 12 17 15 45  0.00000000
PG01 -18199.745905  -8164.460879  17400.038029    236.480405  6  6  5  87       
PG02  18240.630965   3539.398955 -18265.598836   -632.529892  5  8  3  88       
PG03 -16817.480426   2375.917121  20269.449883   -375.238476  7  7  6 100       
PG04 -26596.266169   -710.739306    870.404046    -66.783507  7  6  4  87       
PG05  10561.977012  12123.317144 -21290.868734   -108.431189  5  4  6  82       
PG06   3279.933146  22593.495651  13569.941926    541.956151  5  6  6  94       
PG07 -13242.745780   7560.745848 -21324.805240    273.048359  4  6  3  97       
PG08 -22986.924455  -6977.391180 -11780.913631    -99.104658  6  6  3 105       
PG09 -23310.331174   8201.364735  -9880.475728   -251.939154  6  4  5  94       
PG10  10873.846469 -23928.059514   2505.992094    -16.498538  6  7  4 107       
PG11  11764.873340  23781.440039   1608.036208    -58.890656  6  6  7  88       
PG12  16709.861370   -191.302949  20346.942649   -317.050104  6     4 107       
PG13  16604.703704  13080.297859 -16373.735245    443.567310  3  8  6  94       
PG14 -13231.853758  22954.267189    171.379135    -66.542579  9  9  8  87       
PG15  23635.970376   4955.982928 -11812.346438     -3.296790  5  7  3  82       
PG16  -6160.652373 -16138.927547 -20330.861236   -525.978347  6  8  6 112       
PG17 -12840.460446  12967.667942  19769.632815    686.635268  5  5  6 116       
PG18  11151.120749 -10286.371441 -21786.983829    -62.698048  9  9  7  95       
PG19      3.336059  14825.420588  21815.018744    251.765254  6  7  6 125       
PG20   3206.469523  22293.039260 -14228.357416    462.973084  3  6  5  78       
PG21 -20270.371997 -14214.993248  11213.153230    153.612700  6  8  5  89       
PG22  -3370.351511 -15411.287170  21813.873075    386.654595     5  4  83       
PG23  16187.379578 -19091.990360  -8668.928374      0.260097 10 11  8  80       
PG24  20284.551661  10665.905945  13429.041587     11.464760  6  6  2  97       
PG25  18146.819789 -11152.289162  15383.875372    402.903223  7  4  5 101       
PG26   1378.381912 -23674.048755 -11710.939549    238.587998  4  5  3  98       
PG27 -13470.059012 -12822.250301 -19338.790628    150.743118  7  6  5 107       
PG29  24963.124491  -4350.162536  -8135.102631   -574.642865  1  8  8  80       
PG30  -4294.605904  18759.690979 -18107.428394   -535.229860  2  5     89       
PG31  -3983.014490 -23177.445086  11718.318288   -203.553032  6  6  5 100       
PG32   8894.949297 -14665.057860  20381.730626   -332.904333  3  1  5  97       
*  2022 12 17 16  0  0.00000000
PG01 -19146.730665  -9834.322433  15476.788737    236.475689  6  6  4  99       
PG02  19417.348092   5303.952248 -16587.423469   -632.527878  4  8  3  77       
PG03 -15817.755659    197.574768  21195.418753   -375.238368  7  7  6 107       
PG04 -26342.619574   -961.115685   3706.210075    -66.776955  7  6  5  74       
PG05   9540.067558  14244.567627 -20425.124585   -108.432599  5  4  6  85       
PG06   2255.233399  21273.859850  15754.763599    541.962964  5  5  6 108       
PG07 -14625.628081   5454.126983 -21111.183060    273.043539  4  7  3 105       
PG08 -21549.132624  -7285.090488 -14063.364059    -99.106154  6  6  4 106       
PG09 -24298.484174   8039.169426  -7270.919956   -251.933565  5  5  5  95       
PG10  11129.147652 -23917.802271   -396.966352    -16.500364  6  8  4  81       
PG11  11382.783724  23607.132958   4441.227900    -58.897399  6  6  7  94       
PG12  15543.643385   1944.070525  21161.553288   -317.054039  6  2  5 105       
PG13  14664.823837  13066.954960 -18142.902342    443.573207  4  8  7  88       
PG14 -13421.356300  22688.244945  -2666.379100    -66.536796  9  9  8  96       
PG15  22299.614785   5471.242296 -14033.017650     -3.293666  4  7  3  82       
PG16  -4904.805690 -17960.238337 -19047.160734   -525.977781  6  8  6 103       
PG17 -14928.487952  12875.902425  18280.580739    686.637545  5  4  6 107       
PG18  12510.184579  -8187.864346 -21950.626754    -62.711228  9  8  8  88       
PG19  -2531.587042  14699.311390  21730.957329    251.770098  6  8  6 118       
PG20   2556.134774  23661.839763 -11996.698442    462.971296  4  7  4  76       
PG21 -20790.434947 -15129.531067   8704.871980    153.611884  6  8  5  82       
PG22   -952.499549 -15377.769793  22065.250093    386.661829     5  4  95       
PG23  15899.567553 -17967.714821 -11238.623322      0.260713  9 11  9  83       
PG24  20987.261822  11956.107351  11165.143021     11.449177  6  6  2  91       
PG25  17487.027913  -9327.833003  17241.024738    402.906366  6  5  5  99       
PG26   2125.462717 -24663.095855  -9251.770732    238.588738  4  6  3  99       
PG27 -11255.155536 -13043.121905 -20546.555521    150.734187  7  6  4 113       
PG29  25726.308433  -4152.052926  -5388.633631   -574.645210     7  8  84       
PG30  -5620.602025  17020.528901 -19431.596199   -535.229227  1  6     89       
PG31  -2960.266980 -22033.222137  14016.814721   -203.554139  6  6  5 109       
PG32  11137.238690 -14711.074382  19185.371549   -332.916133  3  3  5  96       
*  2022 12 17 16 15  0.00000000
PG01 -20047.461604 -11254.705943  13285.691807    236.470991  6  6  4  92       
PG02  20541.554584   6843.647317 -14607.862932   -632.525933  3  8  3  40       
PG03 -14904.863228  -2109.073114  21752.028577   -375.238226  7  6  6 105       
PG04 -25786.960152  -1252.365413   6478.648757    -66.770556  7  6  5  81       
PG05   8671.893056  16308.820702 -19212.103271   -108.433995  5  3  5  84       
PG06   1019.654314  19828.083089  17668.716264    541.969757  5  5  6 103       
PG07 -16080.134162   3460.144393 -20521.532593    273.038467  4  7  3  99       
PG08 -19888.127422  -7704.820708 -16108.708624    -99.107785  5  6  4 114       
PG09 -24995.455937   7884.502849  -4536.878967   -251.928082  5  5  5 101       
PG10  11257.218253 -23615.140481  -3292.938629    -16.501518  7  8  5  87       
PG11  10815.178185  23190.978413   7198.165388    -58.904225  4  7  7  98       
PG12  14458.106859   4201.422298  21602.378342   -317.058374  6  4  5 105       
PG13  12545.364839  13155.961881 -19606.061877    443.579131  4  8  7 107       
PG14 -13488.937276  22142.867852  -5457.905961    -66.531036  8  9  8  91       
PG15  20765.410609   6108.062881 -16021.463400     -3.290810  4  7  4  84       
PG16  -3820.721419 -19705.734278 -17438.465679   -525.977127  7  8  7 108       
PG17 -16837.929060  12888.361715  16488.214184    686.640391  5  5  6  98       
PG18  13978.114006  -6169.296322 -21736.523633    -62.724422  9  7  7  83       
PG19  -5040.419272  14708.828101  21264.314827    251.774651  6  8  6 114       
PG20   2038.339111  24805.688905  -9560.688282    462.969347  4  7  4  71       
PG21 -21168.906286 -15805.859639   6056.270485    153.611360  6  8  5  83       
PG22   1472.892636 -15474.036125  21951.616865    386.668846     6  4  93       
PG23  15570.006330 -16568.233079 -13613.456543      0.261376  9 11  9  83       
PG24  21574.564014  13008.123237   8710.117607     11.433610  6  6  2 107       
PG25  16844.787928  -7291.826984  18791.531361    402.909553  6  5  5 101       
PG26   2730.026152 -25415.634875  -6630.973681    238.589491  4  7  2 109       
PG27  -8938.158565 -13399.539560 -21410.663064    150.725235  7  6  4 111       
PG29  26183.614461  -3980.874990  -2549.945078   -574.647513  1  7  7  79       
PG30  -7103.793858  15241.837707 -20416.686752   -535.228610  3  6  1  89       
PG31  -1737.375082 -20739.535367  16066.348484   -203.555227  5  6  6 102       
PG32  13224.428524 -14853.129089  17661.033408   -332.927953  4  4  4  96       
EOF
